{
  "type": "FeatureCollection",
  "features": [
    {
      "type": "Feature",
      "properties": {
        "norad_id": 34478,
        "name": "COSMOS 2251 DEB",
        "group": "cosmos-2251-debris",
        "lat": 33.09653388030361,
        "lon": 29.10812658287075,
        "alt_km": 564.382853935318,
        "timestamp": "2025-12-07T03:52:32.897011+00:00",
        "meta_object_name": "COSMOS 2251 DEB",
        "meta_object_id": "1993-036TX",
        "meta_epoch": "2025-12-06T07:34:22.683648",
        "meta_mean_motion": 15.07227835,
        "meta_eccentricity": 0.00361382,
        "meta_inclination": 74.0403,
        "meta_ra_of_asc_node": 20.0951,
        "meta_arg_of_pericenter": 242.7899,
        "meta_mean_anomaly": 243.3631,
        "meta_ephemeris_type": 0,
        "meta_classification_type": "U",
        "meta_norad_cat_id": 34478,
        "meta_element_set_no": 999,
        "meta_rev_at_epoch": 88876,
        "meta_bstar": 0.004688192,
        "meta_mean_motion_dot": 0.00072386,
        "meta_mean_motion_ddot": 0,
        "tle_line1": "1 34478U 93036TX  25340.31554032  .00072386  00000+0  46882-2 0  9999",
        "tle_line2": "2 34478  74.0403  20.0951 0036138 242.7899 243.3631 15.07227835888764"
      },
      "geometry": {
        "type": "Point",
        "coordinates": [
          29.10812658287075,
          33.09653388030361
        ]
      }
    },
    {
      "type": "Feature",
      "properties": {
        "norad_id": 34481,
        "name": "COSMOS 2251 DEB",
        "group": "cosmos-2251-debris",
        "lat": 53.33877879121005,
        "lon": 86.3811347096218,
        "alt_km": 828.6850176508124,
        "timestamp": "2025-12-07T03:52:32.897021+00:00",
        "meta_object_name": "COSMOS 2251 DEB",
        "meta_object_id": "1993-036UA",
        "meta_epoch": "2025-12-06T12:38:08.715264",
        "meta_mean_motion": 14.32513868,
        "meta_eccentricity": 0.00708966,
        "meta_inclination": 73.9811,
        "meta_ra_of_asc_node": 64.8398,
        "meta_arg_of_pericenter": 240.3189,
        "meta_mean_anomaly": 142.8465,
        "meta_ephemeris_type": 0,
        "meta_classification_type": "U",
        "meta_norad_cat_id": 34481,
        "meta_element_set_no": 999,
        "meta_rev_at_epoch": 87360,
        "meta_bstar": 0.0013922376,
        "meta_mean_motion_dot": 3.856e-05,
        "meta_mean_motion_ddot": 0,
        "tle_line1": "1 34481U 93036UA  25340.52648976  .00003856  00000+0  13922-2 0  9992",
        "tle_line2": "2 34481  73.9811  64.8398 0070896 240.3189 142.8465 14.32513868873601"
      },
      "geometry": {
        "type": "Point",
        "coordinates": [
          86.3811347096218,
          53.33877879121005
        ]
      }
    },
    {
      "type": "Feature",
      "properties": {
        "norad_id": 34482,
        "name": "COSMOS 2251 DEB",
        "group": "cosmos-2251-debris",
        "lat": -31.765993858152243,
        "lon": 64.60040132504206,
        "alt_km": 665.5073829350222,
        "timestamp": "2025-12-07T03:52:32.897031+00:00",
        "meta_object_name": "COSMOS 2251 DEB",
        "meta_object_id": "1993-036UB",
        "meta_epoch": "2025-12-06T04:44:26.566944",
        "meta_mean_motion": 14.6896238,
        "meta_eccentricity": 0.00455262,
        "meta_inclination": 74.0371,
        "meta_ra_of_asc_node": 236.2565,
        "meta_arg_of_pericenter": 297.4369,
        "meta_mean_anomaly": 220.5389,
        "meta_ephemeris_type": 0,
        "meta_classification_type": "U",
        "meta_norad_cat_id": 34482,
        "meta_element_set_no": 999,
        "meta_rev_at_epoch": 88091,
        "meta_bstar": 0.003298856,
        "meta_mean_motion_dot": 0.00019656,
        "meta_mean_motion_ddot": 0,
        "tle_line1": "1 34482U 93036UB  25340.19752971  .00019656  00000+0  32989-2 0  9996",
        "tle_line2": "2 34482  74.0371 236.2565 0045526 297.4369 220.5389 14.68962380880918"
      },
      "geometry": {
        "type": "Point",
        "coordinates": [
          64.60040132504206,
          -31.765993858152243
        ]
      }
    },
    {
      "type": "Feature",
      "properties": {
        "norad_id": 34544,
        "name": "COSMOS 2251 DEB",
        "group": "cosmos-2251-debris",
        "lat": -51.417864792975095,
        "lon": 54.26316691206119,
        "alt_km": 778.5137624980971,
        "timestamp": "2025-12-07T03:52:32.897041+00:00",
        "meta_object_name": "COSMOS 2251 DEB",
        "meta_object_id": "1993-036UE",
        "meta_epoch": "2025-12-05T17:20:31.794144",
        "meta_mean_motion": 13.54657034,
        "meta_eccentricity": 0.03845472,
        "meta_inclination": 73.9151,
        "meta_ra_of_asc_node": 215.3898,
        "meta_arg_of_pericenter": 245.121,
        "meta_mean_anomaly": 175.271,
        "meta_ephemeris_type": 0,
        "meta_classification_type": "U",
        "meta_norad_cat_id": 34544,
        "meta_element_set_no": 999,
        "meta_rev_at_epoch": 82787,
        "meta_bstar": 0.00038902379,
        "meta_mean_motion_dot": 4.03e-06,
        "meta_mean_motion_ddot": 0,
        "tle_line1": "1 34544U 93036UE  25339.72259021  .00000403  00000+0  38902-3 0  9992",
        "tle_line2": "2 34544  73.9151 215.3898 0384547 245.1210 175.2710 13.54657034827873"
      },
      "geometry": {
        "type": "Point",
        "coordinates": [
          54.26316691206119,
          -51.417864792975095
        ]
      }
    },
    {
      "type": "Feature",
      "properties": {
        "norad_id": 34546,
        "name": "COSMOS 2251 DEB",
        "group": "cosmos-2251-debris",
        "lat": 15.32760654993953,
        "lon": 75.08533310607093,
        "alt_km": 756.496647906024,
        "timestamp": "2025-12-07T03:52:32.897052+00:00",
        "meta_object_name": "COSMOS 2251 DEB",
        "meta_object_id": "1993-036UG",
        "meta_epoch": "2025-12-06T14:07:37.216416",
        "meta_mean_motion": 14.45368319,
        "meta_eccentricity": 0.00217821,
        "meta_inclination": 74.0318,
        "meta_ra_of_asc_node": 260.6541,
        "meta_arg_of_pericenter": 335.0565,
        "meta_mean_anomaly": 89.3109,
        "meta_ephemeris_type": 0,
        "meta_classification_type": "U",
        "meta_norad_cat_id": 34546,
        "meta_element_set_no": 999,
        "meta_rev_at_epoch": 87937,
        "meta_bstar": 0.0012908398,
        "meta_mean_motion_dot": 4.528e-05,
        "meta_mean_motion_ddot": 0,
        "tle_line1": "1 34546U 93036UG  25340.58862519  .00004528  00000+0  12908-2 0  9991",
        "tle_line2": "2 34546  74.0318 260.6541 0021782 335.0565  89.3109 14.45368319879376"
      },
      "geometry": {
        "type": "Point",
        "coordinates": [
          75.08533310607093,
          15.32760654993953
        ]
      }
    },
    {
      "type": "Feature",
      "properties": {
        "norad_id": 34547,
        "name": "COSMOS 2251 DEB",
        "group": "cosmos-2251-debris",
        "lat": 5.600287817236182,
        "lon": -70.02739754828772,
        "alt_km": 643.950075309408,
        "timestamp": "2025-12-07T03:52:32.897063+00:00",
        "meta_object_name": "COSMOS 2251 DEB",
        "meta_object_id": "1993-036UH",
        "meta_epoch": "2025-12-06T15:40:13.304064",
        "meta_mean_motion": 14.72101295,
        "meta_eccentricity": 0.00182423,
        "meta_inclination": 74.0308,
        "meta_ra_of_asc_node": 112.5708,
        "meta_arg_of_pericenter": 192.7343,
        "meta_mean_anomaly": 167.3371,
        "meta_ephemeris_type": 0,
        "meta_classification_type": "U",
        "meta_norad_cat_id": 34547,
        "meta_element_set_no": 999,
        "meta_rev_at_epoch": 88432,
        "meta_bstar": 0.0038834839,
        "meta_mean_motion_dot": 0.00024558,
        "meta_mean_motion_ddot": 0,
        "tle_line1": "1 34547U 93036UH  25340.65293176  .00024558  00000+0  38835-2 0  9999",
        "tle_line2": "2 34547  74.0308 112.5708 0018242 192.7343 167.3371 14.72101295884322"
      },
      "geometry": {
        "type": "Point",
        "coordinates": [
          -70.02739754828772,
          5.600287817236182
        ]
      }
    },
    {
      "type": "Feature",
      "properties": {
        "norad_id": 34553,
        "name": "COSMOS 2251 DEB",
        "group": "cosmos-2251-debris",
        "lat": 2.465213975950168,
        "lon": -156.79019526488403,
        "alt_km": 701.2581613658249,
        "timestamp": "2025-12-07T03:52:32.897073+00:00",
        "meta_object_name": "COSMOS 2251 DEB",
        "meta_object_id": "1993-036UP",
        "meta_epoch": "2025-12-06T10:01:28.013376",
        "meta_mean_motion": 14.57635005,
        "meta_eccentricity": 0.0019578,
        "meta_inclination": 74.0245,
        "meta_ra_of_asc_node": 203.9175,
        "meta_arg_of_pericenter": 281.7412,
        "meta_mean_anomaly": 139.1838,
        "meta_ephemeris_type": 0,
        "meta_classification_type": "U",
        "meta_norad_cat_id": 34553,
        "meta_element_set_no": 999,
        "meta_rev_at_epoch": 88004,
        "meta_bstar": 0.0020259605,
        "meta_mean_motion_dot": 9.242e-05,
        "meta_mean_motion_ddot": 0,
        "tle_line1": "1 34553U 93036UP  25340.41768534  .00009242  00000+0  20260-2 0  9991",
        "tle_line2": "2 34553  74.0245 203.9175 0019578 281.7412 139.1838 14.57635005880045"
      },
      "geometry": {
        "type": "Point",
        "coordinates": [
          -156.79019526488403,
          2.465213975950168
        ]
      }
    }
  ]
}